{"type":"FeatureCollection","features":[{"type":"Feature","geometry":{"type":"Point","coordinates":[11.698811,44.995182]},"properties":{"name":"Frassinelle Polesine","province":"Rovigo","population":1322,"distance_km":7.47,"flagged_for_review":false,"nearest_supermarket":"Eurospar","supermarket_lat":44.9617709,"supermarket_lon":11.7408282}},{"type":"Feature","geometry":{"type":"Point","coordinates":[11.608809,44.991381]},"properties":{"name":"Pincara","province":"Rovigo","population":1063,"distance_km":4.46,"flagged_for_review":false,"nearest_supermarket":"Coop","supermarket_lat":44.9595026,"supermarket_lon":11.6022195}},{"type":"Feature","geometry":{"type":"Point","coordinates":[11.3564707,44.9914983]},"properties":{"name":"Calto","province":"Rovigo","population":681,"distance_km":5.09,"flagged_for_review":false,"nearest_supermarket":"Coop","supermarket_lat":45.017317444444444,"supermarket_lon":11.313229366666668}},{"type":"Feature","geometry":{"type":"Point","coordinates":[12.07852,45.005685]},"properties":{"name":"Corbola","province":"Rovigo","population":2225,"distance_km":9.39,"flagged_for_review":false,"nearest_supermarket":"Interspar","supermarket_lat":45.0453037,"supermarket_lon":12.0574254}},{"type":"Feature","geometry":{"type":"Point","coordinates":[11.5898119,45.0295522]},"properties":{"name":"San Bellino","province":"Rovigo","population":1061,"distance_km":4.53,"flagged_for_review":false,"nearest_supermarket":"Unnamed supermarket","supermarket_lat":45.03085,"supermarket_lon":11.6413312}},{"type":"Feature","geometry":{"type":"Point","coordinates":[11.7665362,45.0007997]},"properties":{"name":"Bosaro","province":"Rovigo","population":1400,"distance_km":4.34,"flagged_for_review":false,"nearest_supermarket":"IPER KASA","supermarket_lat":45.0285842,"supermarket_lon":11.7775592}},{"type":"Feature","geometry":{"type":"Point","coordinates":[11.3691561,45.0136954]},"properties":{"name":"Ceneselli","province":"Rovigo","population":1558,"distance_km":5.6,"flagged_for_review":false,"nearest_supermarket":"Coop","supermarket_lat":45.017317444444444,"supermarket_lon":11.313229366666668}},{"type":"Feature","geometry":{"type":"Point","coordinates":[11.6933077,45.0144041]},"properties":{"name":"Villamarzana","province":"Rovigo","population":1116,"distance_km":5.14,"flagged_for_review":false,"nearest_supermarket":"Unnamed supermarket","supermarket_lat":45.05056087272727,"supermarket_lon":11.696682045454544}},{"type":"Feature","geometry":{"type":"Point","coordinates":[11.2529005,45.0601694]},"properties":{"name":"Bergantino","province":"Rovigo","population":2337,"distance_km":6.56,"flagged_for_review":false,"nearest_supermarket":"EuroSpin","supermarket_lat":45.025236559999996,"supermarket_lon":11.29569232}},{"type":"Feature","geometry":{"type":"Point","coordinates":[11.6627796,45.1005351]},"properties":{"name":"Lusia","province":"Rovigo","population":3221,"distance_km":5.37,"flagged_for_review":false,"nearest_supermarket":"MD","supermarket_lat":45.0808023,"supermarket_lon":11.6128815}},{"type":"Feature","geometry":{"type":"Point","coordinates":[11.1036256,45.1428236]},"properties":{"name":"Gazzo Veronese","province":"Verona","population":5239,"distance_km":4.78,"flagged_for_review":false,"nearest_supermarket":"Iper Famila","supermarket_lat":45.174442345,"supermarket_lon":11.066735185}},{"type":"Feature","geometry":{"type":"Point","coordinates":[11.6605269,45.1063826]},"properties":{"name":"Barbona","province":"Padova","population":564,"distance_km":5.98,"flagged_for_review":false,"nearest_supermarket":"MD","supermarket_lat":45.0808023,"supermarket_lon":11.6128815}},{"type":"Feature","geometry":{"type":"Point","coordinates":[11.99051,45.1350519]},"properties":{"name":"Pettorazza Grimani","province":"Rovigo","population":1410,"distance_km":7.73,"flagged_for_review":false,"nearest_supermarket":"EuroSpin","supermarket_lat":45.1376205125,"supermarket_lon":12.0743052}},{"type":"Feature","geometry":{"type":"Point","coordinates":[11.5477012,45.127462]},"properties":{"name":"Piacenza d'Adige","province":"Padova","population":1250,"distance_km":8.84,"flagged_for_review":false,"nearest_supermarket":"Lidl","supermarket_lat":45.0929048,"supermarket_lon":11.5160528}},{"type":"Feature","geometry":{"type":"Point","coordinates":[11.398613,45.1733088]},"properties":{"name":"Terrazzo","province":"Verona","population":2167,"distance_km":4.6,"flagged_for_review":false,"nearest_supermarket":"Il Gusto","supermarket_lat":45.13854248,"supermarket_lon":11.3920637}},{"type":"Feature","geometry":{"type":"Point","coordinates":[11.4418785,45.1670683]},"properties":{"name":"Merlara","province":"Padova","population":2552,"distance_km":8.26,"flagged_for_review":false,"nearest_supermarket":"Il Gusto","supermarket_lat":45.13854248,"supermarket_lon":11.3920637}},{"type":"Feature","geometry":{"type":"Point","coordinates":[11.9607309,45.1701644]},"properties":{"name":"Agna","province":"Padova","population":3148,"distance_km":6.09,"flagged_for_review":false,"nearest_supermarket":"Le Delizie Di Canella Gianfranco","supermarket_lat":45.2165527,"supermarket_lon":11.9300306}},{"type":"Feature","geometry":{"type":"Point","coordinates":[10.9793623,45.2134004]},"properties":{"name":"Sorgà","province":"Verona","population":2959,"distance_km":9.52,"flagged_for_review":false,"nearest_supermarket":"famila","supermarket_lat":45.2674988,"supermarket_lon":11.0085469}},{"type":"Feature","geometry":{"type":"Point","coordinates":[11.4686356,45.1874943]},"properties":{"name":"Casale di Scodosia","province":"Padova","population":4643,"distance_km":5.6,"flagged_for_review":false,"nearest_supermarket":"Punto SMA","supermarket_lat":45.23135043333333,"supermarket_lon":11.466439822222222}},{"type":"Feature","geometry":{"type":"Point","coordinates":[12.0399128,45.1927143]},"properties":{"name":"Cona","province":"Venezia","population":2770,"distance_km":4.45,"flagged_for_review":false,"nearest_supermarket":"Unnamed supermarket","supermarket_lat":45.2154018,"supermarket_lon":12.0641599}},{"type":"Feature","geometry":{"type":"Point","coordinates":[11.5242368,45.19214]},"properties":{"name":"Megliadino San Vitale","province":"Padova","population":1792,"distance_km":4.04,"flagged_for_review":false,"nearest_supermarket":"Aliper","supermarket_lat":45.2238076,"supermarket_lon":11.5082776}},{"type":"Feature","geometry":{"type":"Point","coordinates":[11.1517086,45.1821848]},"properties":{"name":"Sanguinetto","province":"Verona","population":4234,"distance_km":4.8,"flagged_for_review":false,"nearest_supermarket":"Migross","supermarket_lat":45.1893268,"supermarket_lon":11.2006571}},{"type":"Feature","geometry":{"type":"Point","coordinates":[11.7433722,45.1773324]},"properties":{"name":"Solesino","province":"Padova","population":6733,"distance_km":3.07,"flagged_for_review":false,"nearest_supermarket":"Primizie & Delizie","supermarket_lat":45.1887434,"supermarket_lon":11.7109925}},{"type":"Feature","geometry":{"type":"Point","coordinates":[11.0844436,45.2427902]},"properties":{"name":"Salizzole","province":"Verona","population":3795,"distance_km":3.69,"flagged_for_review":false,"nearest_supermarket":"Unnamed supermarket","supermarket_lat":45.2555831,"supermarket_lon":11.1214907}},{"type":"Feature","geometry":{"type":"Point","coordinates":[11.4453492,45.194131]},"properties":{"name":"Urbana","province":"Padova","population":2027,"distance_km":5.59,"flagged_for_review":false,"nearest_supermarket":"Alí","supermarket_lat":45.23147077272727,"supermarket_lon":11.45312469090909}},{"type":"Feature","geometry":{"type":"Point","coordinates":[11.3925,45.231785]},"properties":{"name":"Bevilacqua","province":"Verona","population":1800,"distance_km":3.4,"flagged_for_review":false,"nearest_supermarket":"EuroSpin","supermarket_lat":45.2302707,"supermarket_lon":11.3515727}},{"type":"Feature","geometry":{"type":"Point","coordinates":[11.6208414,45.1950006]},"properties":{"name":"Santa Caterina d'Este","province":"Padova","population":2332,"distance_km":3.11,"flagged_for_review":false,"nearest_supermarket":"Despar","supermarket_lat":45.1928518,"supermarket_lon":11.5861459}},{"type":"Feature","geometry":{"type":"Point","coordinates":[11.1385011,45.2072831]},"properties":{"name":"Concamarise","province":"Verona","population":1060,"distance_km":4.11,"flagged_for_review":false,"nearest_supermarket":"Market Isolani di Isolani Pierluigi","supermarket_lat":45.2143932,"supermarket_lon":11.1752797}},{"type":"Feature","geometry":{"type":"Point","coordinates":[11.989114,45.22109]},"properties":{"name":"Candiana","province":"Padova","population":2159,"distance_km":6.33,"flagged_for_review":false,"nearest_supermarket":"Prix","supermarket_lat":45.251194842857146,"supermarket_lon":12.025975814285715}},{"type":"Feature","geometry":{"type":"Point","coordinates":[11.2839075,45.2181419]},"properties":{"name":"Angiari","province":"Verona","population":2530,"distance_km":4.59,"flagged_for_review":false,"nearest_supermarket":"famila","supermarket_lat":45.19850028571428,"supermarket_lon":11.31056162857143}},{"type":"Feature","geometry":{"type":"Point","coordinates":[10.9684847,45.2409293]},"properties":{"name":"Erbè","province":"Verona","population":1926,"distance_km":5.32,"flagged_for_review":false,"nearest_supermarket":"A&O","supermarket_lat":45.2695814,"supermarket_lon":10.9346025}},{"type":"Feature","geometry":{"type":"Point","coordinates":[11.8186411,45.2452436]},"properties":{"name":"San Pietro Viminario","province":"Padova","population":2981,"distance_km":4.51,"flagged_for_review":false,"nearest_supermarket":"Prix","supermarket_lat":45.2135623,"supermarket_lon":11.832338279999998}},{"type":"Feature","geometry":{"type":"Point","coordinates":[11.279332,45.2575734]},"properties":{"name":"Bonavigo","province":"Verona","population":2023,"distance_km":5.4,"flagged_for_review":false,"nearest_supermarket":"Grisi Supermercati","supermarket_lat":45.2387181,"supermarket_lon":11.3338327}},{"type":"Feature","geometry":{"type":"Point","coordinates":[11.2281869,45.2429863]},"properties":{"name":"San Pietro di Morubio","province":"Verona","population":3102,"distance_km":9.16,"flagged_for_review":false,"nearest_supermarket":"Market Isolani di Isolani Pierluigi","supermarket_lat":45.2143932,"supermarket_lon":11.1752797}},{"type":"Feature","geometry":{"type":"Point","coordinates":[11.2477997,45.2723159]},"properties":{"name":"Roverchiara","province":"Verona","population":2614,"distance_km":6.51,"flagged_for_review":false,"nearest_supermarket":"FLORIDA Market","supermarket_lat":45.2869305,"supermarket_lon":11.1845881}},{"type":"Feature","geometry":{"type":"Point","coordinates":[11.6304106,45.2909178]},"properties":{"name":"Lozzo Atestino","province":"Padova","population":3078,"distance_km":4.33,"flagged_for_review":false,"nearest_supermarket":"Frantoio di Cornoleda","supermarket_lat":45.2765705,"supermarket_lon":11.6651316}},{"type":"Feature","geometry":{"type":"Point","coordinates":[11.4020905,45.2847491]},"properties":{"name":"Pressana","province":"Verona","population":2511,"distance_km":3.34,"flagged_for_review":false,"nearest_supermarket":"Lidl","supermarket_lat":45.303490588888884,"supermarket_lon":11.37848661111111}},{"type":"Feature","geometry":{"type":"Point","coordinates":[11.4449884,45.2737512]},"properties":{"name":"Roveredo di Guà","province":"Verona","population":1630,"distance_km":6.36,"flagged_for_review":false,"nearest_supermarket":"Lidl","supermarket_lat":45.2379751,"supermarket_lon":11.463920555555555}},{"type":"Feature","geometry":{"type":"Point","coordinates":[11.3222608,45.3249693]},"properties":{"name":"Veronella","province":"Verona","population":5119,"distance_km":4.55,"flagged_for_review":false,"nearest_supermarket":"imarket","supermarket_lat":45.3262732,"supermarket_lon":11.283218}},{"type":"Feature","geometry":{"type":"Point","coordinates":[10.883788,45.291882]},"properties":{"name":"Nogarole Rocca","province":"Verona","population":3880,"distance_km":5.53,"flagged_for_review":false,"nearest_supermarket":"A&O","supermarket_lat":45.2695814,"supermarket_lon":10.9346025}},{"type":"Feature","geometry":{"type":"Point","coordinates":[11.7165149,45.2700441]},"properties":{"name":"Arquà Petrarca","province":"Padova","population":1779,"distance_km":4.81,"flagged_for_review":false,"nearest_supermarket":"Despar","supermarket_lat":45.2432715,"supermarket_lon":11.7447013}},{"type":"Feature","geometry":{"type":"Point","coordinates":[11.956012,45.309392]},"properties":{"name":"Polverara","province":"Padova","population":3401,"distance_km":3.75,"flagged_for_review":false,"nearest_supermarket":"SuperM di Brugine","supermarket_lat":45.2999407,"supermarket_lon":11.9917948}},{"type":"Feature","geometry":{"type":"Point","coordinates":[11.584203,45.325389]},"properties":{"name":"Agugliaro","province":"Vicenza","population":1399,"distance_km":3.94,"flagged_for_review":false,"nearest_supermarket":"VIVO","supermarket_lat":45.3358979,"supermarket_lon":11.5395041}},{"type":"Feature","geometry":{"type":"Point","coordinates":[11.446266,45.3045125]},"properties":{"name":"Asigliano Veneto","province":"Vicenza","population":846,"distance_km":4.86,"flagged_for_review":false,"nearest_supermarket":"Unnamed supermarket","supermarket_lat":45.3185204,"supermarket_lon":11.496548}},{"type":"Feature","geometry":{"type":"Point","coordinates":[11.4660293,45.3510428]},"properties":{"name":"Orgiano","province":"Vicenza","population":3003,"distance_km":3.21,"flagged_for_review":false,"nearest_supermarket":"Prix","supermarket_lat":45.3535688,"supermarket_lon":11.502086966666667}},{"type":"Feature","geometry":{"type":"Point","coordinates":[11.3393157,45.3637799]},"properties":{"name":"Zimella","province":"Verona","population":4889,"distance_km":4.75,"flagged_for_review":false,"nearest_supermarket":"Lidl","supermarket_lat":45.37227038571429,"supermarket_lon":11.382678085714286}},{"type":"Feature","geometry":{"type":"Point","coordinates":[11.4273627,45.3650367]},"properties":{"name":"Alonte","province":"Vicenza","population":1561,"distance_km":3.93,"flagged_for_review":false,"nearest_supermarket":"Galassia","supermarket_lat":45.3834751,"supermarket_lon":11.3946864}},{"type":"Feature","geometry":{"type":"Point","coordinates":[11.5337205,45.4024774]},"properties":{"name":"Villaga","province":"Vicenza","population":1903,"distance_km":5.11,"flagged_for_review":false,"nearest_supermarket":"Aliper","supermarket_lat":45.3979707,"supermarket_lon":11.58073566}},{"type":"Feature","geometry":{"type":"Point","coordinates":[11.4534313,45.4228798]},"properties":{"name":"Val Liona","province":"Vicenza","population":3063,"distance_km":4.08,"flagged_for_review":false,"nearest_supermarket":"Cartoleria","supermarket_lat":45.4338412,"supermarket_lon":11.4142715}},{"type":"Feature","geometry":{"type":"Point","coordinates":[11.3398403,45.4625095]},"properties":{"name":"Gambellara","province":"Vicenza","population":3484,"distance_km":4.31,"flagged_for_review":false,"nearest_supermarket":"Bottega Alla Pergola","supermarket_lat":45.4512558,"supermarket_lon":11.3035905}},{"type":"Feature","geometry":{"type":"Point","coordinates":[11.1800214,45.4659334]},"properties":{"name":"Illasi","province":"Verona","population":5180,"distance_km":5.68,"flagged_for_review":false,"nearest_supermarket":"Svelto A&O","supermarket_lat":45.5125761,"supermarket_lon":11.1644964}},{"type":"Feature","geometry":{"type":"Point","coordinates":[11.202892,45.473089]},"properties":{"name":"Cazzano di Tramigna","province":"Verona","population":1470,"distance_km":6.35,"flagged_for_review":false,"nearest_supermarket":"A&O","supermarket_lat":45.48006488,"supermarket_lon":11.25300368}},{"type":"Feature","geometry":{"type":"Point","coordinates":[11.1275531,45.4816208]},"properties":{"name":"Mezzane di Sotto","province":"Verona","population":2516,"distance_km":6.81,"flagged_for_review":false,"nearest_supermarket":"Svelto A&O","supermarket_lat":45.5125761,"supermarket_lon":11.1644964}},{"type":"Feature","geometry":{"type":"Point","coordinates":[11.369496,45.474991]},"properties":{"name":"Zermeghedo","province":"Vicenza","population":1335,"distance_km":4.06,"flagged_for_review":false,"nearest_supermarket":"ali","supermarket_lat":45.448550257142855,"supermarket_lon":11.3765378}},{"type":"Feature","geometry":{"type":"Point","coordinates":[11.2889177,45.4788919]},"properties":{"name":"Roncà","province":"Verona","population":3748,"distance_km":3.5,"flagged_for_review":false,"nearest_supermarket":"A&O","supermarket_lat":45.4806101,"supermarket_lon":11.2561523}},{"type":"Feature","geometry":{"type":"Point","coordinates":[11.362271,45.4898343]},"properties":{"name":"Montorso Vicentino","province":"Vicenza","population":3008,"distance_km":3.73,"flagged_for_review":false,"nearest_supermarket":"Discount Dipiù","supermarket_lat":45.51232148571428,"supermarket_lon":11.3444108}},{"type":"Feature","geometry":{"type":"Point","coordinates":[11.4580722,45.5605248]},"properties":{"name":"Monteviale","province":"Vicenza","population":2772,"distance_km":4.7,"flagged_for_review":false,"nearest_supermarket":"Alimentari e tabacchi","supermarket_lat":45.58855712142857,"supermarket_lon":11.439587585714287}},{"type":"Feature","geometry":{"type":"Point","coordinates":[12.7104204,45.6905428]},"properties":{"name":"Torre di Mosto","province":"Venezia","population":4792,"distance_km":4.96,"flagged_for_review":false,"nearest_supermarket":"Iper Visotto","supermarket_lat":45.718989904761905,"supermarket_lon":12.698179742857143}},{"type":"Feature","geometry":{"type":"Point","coordinates":[12.4920994,45.6789734]},"properties":{"name":"Zenson di Piave","province":"Treviso","population":1733,"distance_km":9.99,"flagged_for_review":false,"nearest_supermarket":"Crai","supermarket_lat":45.7043127,"supermarket_lon":12.4925305}},{"type":"Feature","geometry":{"type":"Point","coordinates":[11.5649783,45.7587799]},"properties":{"name":"Salcedo","province":"Vicenza","population":997,"distance_km":5.36,"flagged_for_review":false,"nearest_supermarket":"A&O","supermarket_lat":45.7484254,"supermarket_lon":11.528238077777779}},{"type":"Feature","geometry":{"type":"Point","coordinates":[12.5504205,45.7869535]},"properties":{"name":"Gorgo al Monticano","province":"Treviso","population":3961,"distance_km":4.59,"flagged_for_review":false,"nearest_supermarket":"Mega","supermarket_lat":45.767499816666664,"supermarket_lon":12.522290883333334}},{"type":"Feature","geometry":{"type":"Point","coordinates":[11.5121486,45.7659086]},"properties":{"name":"Calvene","province":"Vicenza","population":1271,"distance_km":3.18,"flagged_for_review":false,"nearest_supermarket":"A&O","supermarket_lat":45.7484254,"supermarket_lon":11.528238077777779}},{"type":"Feature","geometry":{"type":"Point","coordinates":[12.7388127,45.8145654]},"properties":{"name":"Pramaggiore","province":"Venezia","population":4747,"distance_km":4.52,"flagged_for_review":false,"nearest_supermarket":"Coop","supermarket_lat":45.819042,"supermarket_lon":12.6959613}},{"type":"Feature","geometry":{"type":"Point","coordinates":[12.5383367,45.853838]},"properties":{"name":"Portobuffolè","province":"Treviso","population":738,"distance_km":4.16,"flagged_for_review":false,"nearest_supermarket":"Maxì Supermercato","supermarket_lat":45.8192782,"supermarket_lon":12.53789298}},{"type":"Feature","geometry":{"type":"Point","coordinates":[12.2078305,45.9248578]},"properties":{"name":"Refrontolo","province":"Treviso","population":1694,"distance_km":3.7,"flagged_for_review":false,"nearest_supermarket":"Cuor di CRAI","supermarket_lat":45.9145015,"supermarket_lon":12.1696574}},{"type":"Feature","geometry":{"type":"Point","coordinates":[12.1431366,45.9699873]},"properties":{"name":"Cison di Valmarino","province":"Treviso","population":2478,"distance_km":5.47,"flagged_for_review":false,"nearest_supermarket":"Supermercato Rosa","supermarket_lat":45.941197779999996,"supermarket_lon":12.09157314}},{"type":"Feature","geometry":{"type":"Point","coordinates":[11.3498119,46.3221428]},"properties":{"name":"Truden im Naturpark - Trodena nel Parco Naturale","province":"Bolzano","population":1053,"distance_km":6.46,"flagged_for_review":false,"nearest_supermarket":"Coop","supermarket_lat":46.331259,"supermarket_lon":11.3042242}},{"type":"Feature","geometry":{"type":"Point","coordinates":[12.3228878,46.3305243]},"properties":{"name":"Ospitale di Cadore","province":"Belluno","population":261,"distance_km":6.46,"flagged_for_review":false,"nearest_supermarket":"Unnamed supermarket","supermarket_lat":46.2840466,"supermarket_lon":12.3069488}},{"type":"Feature","geometry":{"type":"Point","coordinates":[12.35555,46.3970312]},"properties":{"name":"Perarolo di Cadore","province":"Belluno","population":358,"distance_km":6.21,"flagged_for_review":false,"nearest_supermarket":"Super A&O","supermarket_lat":46.41982034,"supermarket_lon":12.346238}},{"type":"Feature","geometry":{"type":"Point","coordinates":[11.9757736,46.3813201]},"properties":{"name":"San Tomaso Agordino","province":"Belluno","population":593,"distance_km":4.41,"flagged_for_review":false,"nearest_supermarket":"Coop","supermarket_lat":46.3529789,"supermarket_lon":11.9687206}},{"type":"Feature","geometry":{"type":"Point","coordinates":[12.1739405,46.3860814]},"properties":{"name":"Zoppè di Cadore","province":"Belluno","population":180,"distance_km":7.74,"flagged_for_review":false,"nearest_supermarket":"Alimentari Dont","supermarket_lat":46.354891,"supermarket_lon":12.1443126}},{"type":"Feature","geometry":{"type":"Point","coordinates":[12.517302,46.566029]},"properties":{"name":"Danta di Cadore","province":"Belluno","population":422,"distance_km":6.2,"flagged_for_review":false,"nearest_supermarket":"Alimentari da Mario","supermarket_lat":46.5723916,"supermarket_lon":12.5462634}},{"type":"Feature","geometry":{"type":"Point","coordinates":[11.2027298,46.5847807]},"properties":{"name":"Gargazon - Gargazzone","province":"Bolzano","population":1770,"distance_km":5.6,"flagged_for_review":false,"nearest_supermarket":"Zar","supermarket_lat":46.6053949,"supermarket_lon":11.2273735}},{"type":"Feature","geometry":{"type":"Point","coordinates":[12.0513856,47.0553865]},"properties":{"name":"Brandberg","province":"Unknown","population":null,"distance_km":9.15,"flagged_for_review":false,"nearest_supermarket":"NaveS","supermarket_lat":47.0383946,"supermarket_lon":12.1032619}},{"type":"Feature","geometry":{"type":"Point","coordinates":[13.6487763473524,46.53088510736405]},"properties":{"name":"Arnoldstein","province":"Unknown","population":null,"distance_km":7.66,"flagged_for_review":false,"nearest_supermarket":"Maxi Superstore","supermarket_lat":46.5037032,"supermarket_lon":13.5853343}},{"type":"Feature","geometry":{"type":"Point","coordinates":[12.7914003,46.14498]},"properties":{"name":"Arba / Darbe","province":"Pordenone","population":1334,"distance_km":3.82,"flagged_for_review":false,"nearest_supermarket":"Unnamed supermarket","supermarket_lat":46.1126164,"supermarket_lon":12.7888966}},{"type":"Feature","geometry":{"type":"Point","coordinates":[13.5775111,46.1269227]},"properties":{"name":"Stregna","province":"Udine","population":284,"distance_km":4.83,"flagged_for_review":false,"nearest_supermarket":"Despar","supermarket_lat":46.1213612,"supermarket_lon":13.5220568}},{"type":"Feature","geometry":{"type":"Point","coordinates":[12.8787158,46.4109017]},"properties":{"name":"Enemonzo / Enemonç","province":"Udine","population":1240,"distance_km":3.75,"flagged_for_review":false,"nearest_supermarket":"Unnamed supermarket","supermarket_lat":46.4353382,"supermarket_lon":12.870422}},{"type":"Feature","geometry":{"type":"Point","coordinates":[13.5870828,45.9831085]},"properties":{"name":"San Floriano del Collio / Števerjan","province":"Gorizia","population":735,"distance_km":5.14,"flagged_for_review":false,"nearest_supermarket":"Unnamed supermarket","supermarket_lat":45.9556163,"supermarket_lon":13.6148477}},{"type":"Feature","geometry":{"type":"Point","coordinates":[12.5016263,46.0306995]},"properties":{"name":"Polcenigo / Polcenic - Al Borc","province":"Pordenone","population":3099,"distance_km":3.71,"flagged_for_review":false,"nearest_supermarket":"Visotto","supermarket_lat":46.04569047894737,"supermarket_lon":12.535984068421053}},{"type":"Feature","geometry":{"type":"Point","coordinates":[12.9155542,46.2299006]},"properties":{"name":"Clauzetto / Clausêt","province":"Pordenone","population":382,"distance_km":5.48,"flagged_for_review":false,"nearest_supermarket":"Minimarket Missana","supermarket_lat":46.2100032,"supermarket_lon":12.9604209}},{"type":"Feature","geometry":{"type":"Point","coordinates":[13.123152,46.1202406]},"properties":{"name":"Moruzzo / Murùs","province":"Udine","population":2400,"distance_km":3.73,"flagged_for_review":false,"nearest_supermarket":"Azienda Agricola Gianpiero Molaro","supermarket_lat":46.0969214,"supermarket_lon":13.1376965}},{"type":"Feature","geometry":{"type":"Point","coordinates":[13.3043638,46.3738838]},"properties":{"name":"Resia / Rezija","province":"Udine","population":919,"distance_km":7.04,"flagged_for_review":false,"nearest_supermarket":"Market Unides","supermarket_lat":46.408862,"supermarket_lon":13.3112249}},{"type":"Feature","geometry":{"type":"Point","coordinates":[12.4380528,46.287639]},"properties":{"name":"Cimolais / Thimolei","province":"Pordenone","population":339,"distance_km":6.87,"flagged_for_review":false,"nearest_supermarket":"Unnamed supermarket","supermarket_lat":46.2775925,"supermarket_lon":12.3729651}},{"type":"Feature","geometry":{"type":"Point","coordinates":[12.61367,46.2004998]},"properties":{"name":"Andreis","province":"Pordenone","population":246,"distance_km":4.76,"flagged_for_review":false,"nearest_supermarket":"Panificio Alimentari","supermarket_lat":46.1905908,"supermarket_lon":12.5589945}},{"type":"Feature","geometry":{"type":"Point","coordinates":[12.788497,46.3088622]},"properties":{"name":"Tramonti di Sopra / Tramonç Disore - Vildisora","province":"Pordenone","population":268,"distance_km":3.08,"flagged_for_review":false,"nearest_supermarket":"Self-Service Alimentari","supermarket_lat":46.2849449,"supermarket_lon":12.7958459}},{"type":"Feature","geometry":{"type":"Point","coordinates":[13.1417352,45.9549465]},"properties":{"name":"Lestizza / Listize","province":"Udine","population":3562,"distance_km":3.21,"flagged_for_review":false,"nearest_supermarket":"Visotto","supermarket_lat":45.934977,"supermarket_lon":13.13211985}},{"type":"Feature","geometry":{"type":"Point","coordinates":[12.8230913,46.4035784]},"properties":{"name":"Socchieve / Soclêf","province":"Udine","population":848,"distance_km":3.19,"flagged_for_review":false,"nearest_supermarket":"Alimentari Sabri","supermarket_lat":46.416301,"supermarket_lon":12.7946266}},{"type":"Feature","geometry":{"type":"Point","coordinates":[13.178824,46.255026]},"properties":{"name":"Montenars / Montenârs","province":"Udine","population":498,"distance_km":3.43,"flagged_for_review":false,"nearest_supermarket":"Qualì","supermarket_lat":46.2385114,"supermarket_lon":13.1559617}},{"type":"Feature","geometry":{"type":"Point","coordinates":[13.5936124,46.1564132]},"properties":{"name":"Grimacco","province":"Udine","population":302,"distance_km":8.73,"flagged_for_review":false,"nearest_supermarket":"Medves Alda","supermarket_lat":46.1585218,"supermarket_lon":13.5331333}},{"type":"Feature","geometry":{"type":"Point","coordinates":[13.3406411,45.9434149]},"properties":{"name":"Trivignano Udinese / Trivignan","province":"Udine","population":1520,"distance_km":4.12,"flagged_for_review":false,"nearest_supermarket":"Alimentari","supermarket_lat":45.9130211,"supermarket_lon":13.3460939}},{"type":"Feature","geometry":{"type":"Point","coordinates":[12.8662013,46.3936842]},"properties":{"name":"Preone / Preon","province":"Udine","population":243,"distance_km":5.91,"flagged_for_review":false,"nearest_supermarket":"Despar","supermarket_lat":46.41533462307692,"supermarket_lon":12.916801392307692}},{"type":"Feature","geometry":{"type":"Point","coordinates":[12.987726,45.887015]},"properties":{"name":"Varmo / Vildivar","province":"Udine","population":2618,"distance_km":4.13,"flagged_for_review":false,"nearest_supermarket":"COOPCA","supermarket_lat":45.8780604,"supermarket_lon":13.0362008}},{"type":"Feature","geometry":{"type":"Point","coordinates":[12.945124,45.927016]},"properties":{"name":"Camino al Tagliamento / Cjamin dal Tiliment","province":"Udine","population":1521,"distance_km":3.95,"flagged_for_review":false,"nearest_supermarket":"Super Visotto","supermarket_lat":45.9496775,"supermarket_lon":12.9728435}},{"type":"Feature","geometry":{"type":"Point","coordinates":[13.4382187,45.8906065]},"properties":{"name":"Romans d'Isonzo / Romans dal Lusinç","province":"Gorizia","population":3565,"distance_km":3.52,"flagged_for_review":false,"nearest_supermarket":"Ipercoop","supermarket_lat":45.865549785714286,"supermarket_lon":13.428450100000001}},{"type":"Feature","geometry":{"type":"Point","coordinates":[12.9392936,46.0850276]},"properties":{"name":"Dignano / Dignan","province":"Udine","population":2242,"distance_km":3.98,"flagged_for_review":false,"nearest_supermarket":"Eurospar","supermarket_lat":46.1017515,"supermarket_lon":12.9051162}},{"type":"Feature","geometry":{"type":"Point","coordinates":[13.0491805,45.9426667]},"properties":{"name":"Bertiolo / Bertiûl","province":"Udine","population":2334,"distance_km":5.83,"flagged_for_review":false,"nearest_supermarket":"SuperOne","supermarket_lat":45.96047297222222,"supermarket_lon":12.985119438888889}},{"type":"Feature","geometry":{"type":"Point","coordinates":[13.4021946,45.9270801]},"properties":{"name":"Chiopris Viscone","province":"Udine","population":703,"distance_km":3.77,"flagged_for_review":false,"nearest_supermarket":"Maxi Family","supermarket_lat":45.9549439,"supermarket_lon":13.417243}},{"type":"Feature","geometry":{"type":"Point","coordinates":[13.4793349,46.031323]},"properties":{"name":"Dolegna del Collio / Dolegna dal Cuei / Dolenje v Brdi","province":"Gorizia","population":289,"distance_km":6.71,"flagged_for_review":false,"nearest_supermarket":"Cospalat FVG","supermarket_lat":46.0505666,"supermarket_lon":13.4242633}},{"type":"Feature","geometry":{"type":"Point","coordinates":[13.479434,46.045723]},"properties":{"name":"Prepotto / Prapotno / Prepot","province":"Udine","population":698,"distance_km":5.97,"flagged_for_review":false,"nearest_supermarket":"Cospalat FVG","supermarket_lat":46.0505666,"supermarket_lon":13.4242633}},{"type":"Feature","geometry":{"type":"Point","coordinates":[13.484132,46.173027]},"properties":{"name":"Pulfero","province":"Udine","population":836,"distance_km":5.77,"flagged_for_review":false,"nearest_supermarket":"Medves Alda","supermarket_lat":46.1585218,"supermarket_lon":13.5331333}},{"type":"Feature","geometry":{"type":"Point","coordinates":[11.680669424191096,46.718281261518534]},"properties":{"name":"Kirchbach","province":"Unknown","population":null,"distance_km":3.92,"flagged_for_review":false,"nearest_supermarket":"Eurospar","supermarket_lat":46.70906029629629,"supermarket_lon":11.662504088888888}},{"type":"Feature","geometry":{"type":"Point","coordinates":[11.3993824,45.8634667]},"properties":{"name":"Rotzo","province":"Vicenza","population":636,"distance_km":5.49,"flagged_for_review":false,"nearest_supermarket":"Alimentari","supermarket_lat":45.8401345,"supermarket_lon":11.4207728}},{"type":"Feature","geometry":{"type":"Point","coordinates":[13.3421445,46.5022252]},"properties":{"name":"Brda","province":"Unknown","population":null,"distance_km":3.88,"flagged_for_review":false,"nearest_supermarket":"Schul Market","supermarket_lat":46.5065844,"supermarket_lon":13.306654}},{"type":"Feature","geometry":{"type":"Point","coordinates":[12.5810383,45.5981588]},"properties":{"name":"Chiesanuova","province":"Unknown","population":null,"distance_km":3.9,"flagged_for_review":false,"nearest_supermarket":"MD","supermarket_lat":45.6228148,"supermarket_lon":12.5648348}}]}